[Satellite]
VERSION=1.1
NAME=BGUSAT
NICKNAME=BGUSAT
TLE1=1 41999U 17008BD  17186.21776612  .00001781  00000-0  79534-4 0  9992
TLE2=2 41999  97.4957 247.5629 0010017 141.1639 219.0319 15.22647494 20599
